INTELSAT 21 (IS-21)     
1 38749U 12045A   26159.26097991 -.00000269  00000+0  00000+0 0  9995
2 38749   0.0458  87.6548 0001985 357.4167 207.5531  1.00272068 50435
INTELSAT 23 (IS-23)     
1 38867U 12057A   26159.26193325 -.00000269  00000+0  00000+0 0  9997
2 38867   0.0124 337.9089 0000532 117.6241 202.4244  1.00275334 49862
FM-6                    
1 39360U 13058A   26158.46512902  .00000000  00000+0  00000+0 0  9997
2 39360   0.0094  45.4890 0001558  95.5877 165.8953  1.00260608 45971
INTELSAT 30 (IS-30)     
1 40271U 14062A   26158.54063253 -.00000136  00000+0  00000+0 0  9996
2 40271   0.0218  41.9024 0001064   4.4015 309.1838  1.00271823  6699
DIRECTV 14              
1 40333U 14078B   26158.61115833 -.00000111  00000+0  00000+0 0  9995
2 40333   0.0091 355.2151 0000489 185.8588 195.7159  1.00270219 41948
DIRECTV 15              
1 40663U 15026A   26158.46988700 -.00000088  00000+0  00000+0 0  9992
2 40663   0.0180   0.9006 0000430 228.5203  92.7414  1.00271546 40360
SKY MEXICO-1            
1 40664U 15026B   26158.90019904 -.00000219  00000+0  00000+0 0  9999
2 40664   0.0186  55.5942 0002227  39.0663  46.9150  1.00271594 40364
INTELSAT 34 (IS-34)     
1 40874U 15039A   26158.76238372 -.00000270  00000+0  00000+0 0  9999
2 40874   0.0104 319.7014 0000524  42.0234 113.4137  1.00271453 39545
INTELSAT 31 (IS-31)     
1 41581U 16035A   26158.39810846 -.00000137  00000+0  00000+0 0  9995
2 41581   0.0186 259.0986 0000826 334.9690  70.0155  1.00271889 36581
INTELSAT 36 (IS-36)     
1 41747U 16053A   26158.50171211 -.00000010  00000+0  00000+0 0  9998
2 41747   0.0098 351.0872 0001812 347.2262 166.7081  1.00271488 35868
INTELSAT 32E (IS-32E)   
1 41945U 17007B   26158.76481039 -.00000254  00000+0  00000+0 0  9998
2 41945   0.0010 354.1974 0000678 347.1216 147.0062  1.00270608 34139
INTELSAT 35E (IS-35E)   
1 42818U 17041A   26158.69524118 -.00000223  00000+0  00000+0 0  9990
2 42818   0.0202  62.5317 0001841  13.9992  35.3772  1.00272821 32724
INTELSAT 37E (IS-37E)   
1 42950U 17059A   26159.26886662  .00000000  00000+0  00000+0 0  9997
2 42950   0.0184 347.7944 0002365 113.2660 234.3941  1.00268369 31979
AZERSPACE 2 (IS-38)     
1 43632U 18074A   26159.21007318  .00000152  00000+0  00000+0 0  9999
2 43632   0.0199 322.0677 0001456 111.7815 303.4927  1.00271205 28350
HORIZONS-3E             
1 43633U 18074B   26158.80681962 -.00000015  00000+0  00000+0 0  9996
2 43633   0.0033 245.6704 0000822  32.8636  77.1255  1.00272627 28245
AT&T T-16               
1 44333U 19034A   26158.39689512 -.00000101  00000+0  00000+0 0  9990
2 44333   0.0211  62.8087 0000497 205.3448  29.6836  1.00271029 25531
INTELSAT 39 (IS-39)     
1 44476U 19049B   26159.21345319  .00000049  00000+0  00000+0 0  9990
2 44476   0.0187 316.3665 0000765   2.0347  77.0057  1.00270737 25030
GALAXY 30 (G-30)        
1 46114U 20056C   26158.96248221  .00000052  00000+0  00000+0 0  9990
2 46114   0.0178 358.1248 0002238  76.5119  43.2111  1.00272767 21208
GALAXY 33 (G-33)        
1 54026U 22128A   26158.96074887  .00000094  00000+0  00000+0 0  9994
2 54026   0.0268  59.3528 0001862  17.6781  32.2136  1.00272465 13653
GALAXY 34 (G-34)        
1 54027U 22128B   26158.67653338  .00000073  00000+0  00000+0 0  9994
2 54027   0.0089 327.1058 0001937 125.3238 278.2116  1.00276145 13813
GALAXY 31 (G-31)        
1 54243U 22153A   26158.96326221  .00000028  00000+0  00000+0 0  9992
2 54243   0.0335 108.2861 0001332 329.9549  43.8995  1.00272365  7042
GALAXY 32 (G-32)        
1 54244U 22153B   26159.25439789 -.00000159  00000+0  00000+0 0  9996
2 54244   0.0084 326.2391 0002230  71.2368 219.7608  1.00271297 13054
GALAXY 35 (G-35)        
1 54741U 22170A   26159.25396455 -.00000147  00000+0  00000+0 0  9996
2 54741   0.0256  87.1705 0002093 353.2545 174.5566  1.00271509 12805
GALAXY 36 (G-36)        
1 54742U 22170B   26158.89837904 -.00000170  00000+0  00000+0 0  9991
2 54742   0.0133 160.1129 0002733 282.2559  48.3522  1.00271342 12680
GALAXY 37 (G-37)        
1 57493U 23112A   26159.24729119  .00000064  00000+0  00000+0 0  9993
2 57493   0.0180 341.0688 0001974  97.3857 140.2160  1.00271647 10451
